[{"id":"69235","name":"TJS-24","tle1":"1 69235U 26116A   26176.16919925 -.00000222  00000+0  00000+0 0  9990","tle2":"2 69235   0.0387 117.0776 0000523 323.7164 343.7177  1.00271379   305"}]